STARLINK-36862          
1 68003U 26039T   26069.25002315 -.01595643  00000+0 -78121-2 0  9993
2 68003  42.9982  51.3062 0001516 273.8914 165.2181 15.84172056  2967
STARLINK-36888          
1 68004U 26039U   26069.25002315 -.01596200  00000+0 -79787-2 0  9993
2 68004  42.9987  51.3365 0001577 271.7197 155.4403 15.83743062  2964
STARLINK-36910          
1 68005U 26039V   26069.25002315 -.01590139  00000+0 -78454-2 0  9999
2 68005  42.9982  51.3161 0001529 276.6583 158.5432 15.84002260  2969
STARLINK-36889          
1 68006U 26039W   26069.25002315 -.01590807  00000+0 -77288-2 0  9996
2 68006  42.9983  51.2954 0001381 273.7292 169.2966 15.84323183  2962
STARLINK-36592          
1 68007U 26039X   26069.25002315 -.01586395  00000+0 -76483-2 0  9990
2 68007  42.9981  51.2864 0001471 275.9090 171.0114 15.84472109  2960
STARLINK-36911          
1 68008U 26039Y   26069.25002315 -.01587179  00000+0 -76028-2 0  9997
2 68008  42.9981  51.2766 0001485 270.1056 180.7352 15.84606271  2966
STARLINK-36956          
1 68009U 26039Z   26069.25002315 -.01588464  00000+0 -75552-2 0  9997
2 68009  42.9979  51.2665 0001428 272.4802 182.2239 15.84755058  2962
STARLINK-36953          
1 68010U 26039AA  26069.25002315 -.01589778  00000+0 -74761-2 0  9999
2 68010  42.9977  51.2461 0001297 276.6255 185.9335 15.84991536  2968
STARLINK-36991          
1 68011U 26039AB  26069.25002315 -.01591319  00000+0 -74381-2 0  9992
2 68011  42.9975  51.2366 0001406 269.5459 196.9039 15.85116970  2965
STARLINK-36936          
1 68012U 26039AC  26069.25002315 -.01594546  00000+0 -73618-2 0  9990
2 68012  42.9974  51.2164 0001440 275.6247 198.5437 15.85374304  2969
STARLINK-36967          
1 68013U 26039AD  26069.25002315 -.01585269  00000+0 -74917-2 0  9996
2 68013  42.9976  51.2558 0001427 270.1464 188.4597 15.84880827  2961
STARLINK-36985          
1 68014U 26039AE  26069.25002315 -.01587129  00000+0 -73673-2 0  9992
2 68014  42.9976  51.2271 0001388 267.2651 203.0175 15.85250978  2960
STARLINK-36335          
1 68015U 26040A   26069.25002315 -.01042902  37162-3 -16250-2 0  9991
2 68015  97.2777  17.4740 0001147 113.9286 359.0072 16.04129574  2464
STARLINK-36923          
1 68016U 26040B   26069.25002315 -.01047946  37589-3 -16126-2 0  9990
2 68016  97.2778  17.4766 0001020 107.8562  10.5869 16.04340189  2519
STARLINK-36568          
1 68017U 26040C   26069.25002315 -.01044211  37386-3 -15973-2 0  9997
2 68017  97.2775  17.4778 0001122 116.7447   4.2279 16.04439014  2515
STARLINK-36930          
1 68018U 26040D   26069.25002315 -.01043941  37277-3 -16165-2 0  9990
2 68018  97.2775  17.4755 0001039 115.1985   0.4795 16.04234784  2516
