[{"OBJECT_NAME":"STARLINK-36862","OBJECT_ID":"2026-039T","EPOCH":"2026-03-10T06:00:02.000160","MEAN_MOTION":15.84172056,"ECCENTRICITY":0.00015166,"INCLINATION":42.9982,"RA_OF_ASC_NODE":51.3062,"ARG_OF_PERICENTER":273.8914,"MEAN_ANOMALY":165.2181,"EPHEMERIS_TYPE":0,"CLASSIFICATION_TYPE":"U","NORAD_CAT_ID":68003,"ELEMENT_SET_NO":999,"REV_AT_EPOCH":296,"BSTAR":-0.0078120943,"MEAN_MOTION_DOT":-0.01595643,"MEAN_MOTION_DDOT":0},{"OBJECT_NAME":"STARLINK-36888","OBJECT_ID":"2026-039U","EPOCH":"2026-03-10T06:00:02.000160","MEAN_MOTION":15.83743062,"ECCENTRICITY":0.00015772,"INCLINATION":42.9987,"RA_OF_ASC_NODE":51.3365,"ARG_OF_PERICENTER":271.7197,"MEAN_ANOMALY":155.4403,"EPHEMERIS_TYPE":0,"CLASSIFICATION_TYPE":"U","NORAD_CAT_ID":68004,"ELEMENT_SET_NO":999,"REV_AT_EPOCH":296,"BSTAR":-0.0079787063,"MEAN_MOTION_DOT":-0.015962,"MEAN_MOTION_DDOT":0},{"OBJECT_NAME":"STARLINK-36910","OBJECT_ID":"2026-039V","EPOCH":"2026-03-10T06:00:02.000160","MEAN_MOTION":15.8400226,"ECCENTRICITY":0.00015293,"INCLINATION":42.9982,"RA_OF_ASC_NODE":51.3161,"ARG_OF_PERICENTER":276.6583,"MEAN_ANOMALY":158.5432,"EPHEMERIS_TYPE":0,"CLASSIFICATION_TYPE":"U","NORAD_CAT_ID":68005,"ELEMENT_SET_NO":999,"REV_AT_EPOCH":296,"BSTAR":-0.0078454084,"MEAN_MOTION_DOT":-0.01590139,"MEAN_MOTION_DDOT":0},{"OBJECT_NAME":"STARLINK-36889","OBJECT_ID":"2026-039W","EPOCH":"2026-03-10T06:00:02.000160","MEAN_MOTION":15.84323183,"ECCENTRICITY":0.00013817,"INCLINATION":42.9983,"RA_OF_ASC_NODE":51.2954,"ARG_OF_PERICENTER":273.7292,"MEAN_ANOMALY":169.2966,"EPHEMERIS_TYPE":0,"CLASSIFICATION_TYPE":"U","NORAD_CAT_ID":68006,"ELEMENT_SET_NO":999,"REV_AT_EPOCH":296,"BSTAR":-0.0077287758,"MEAN_MOTION_DOT":-0.01590807,"MEAN_MOTION_DDOT":0},{"OBJECT_NAME":"STARLINK-36592","OBJECT_ID":"2026-039X","EPOCH":"2026-03-10T06:00:02.000160","MEAN_MOTION":15.84472109,"ECCENTRICITY":0.00014718,"INCLINATION":42.9981,"RA_OF_ASC_NODE":51.2864,"ARG_OF_PERICENTER":275.909,"MEAN_ANOMALY":171.0114,"EPHEMERIS_TYPE":0,"CLASSIFICATION_TYPE":"U","NORAD_CAT_ID":68007,"ELEMENT_SET_NO":999,"REV_AT_EPOCH":296,"BSTAR":-0.0076483196,"MEAN_MOTION_DOT":-0.01586395,"MEAN_MOTION_DDOT":0},{"OBJECT_NAME":"STARLINK-36911","OBJECT_ID":"2026-039Y","EPOCH":"2026-03-10T06:00:02.000160","MEAN_MOTION":15.84606271,"ECCENTRICITY":0.00014855,"INCLINATION":42.9981,"RA_OF_ASC_NODE":51.2766,"ARG_OF_PERICENTER":270.1056,"MEAN_ANOMALY":180.7352,"EPHEMERIS_TYPE":0,"CLASSIFICATION_TYPE":"U","NORAD_CAT_ID":68008,"ELEMENT_SET_NO":999,"REV_AT_EPOCH":296,"BSTAR":-0.0076028066,"MEAN_MOTION_DOT":-0.01587179,"MEAN_MOTION_DDOT":0},{"OBJECT_NAME":"STARLINK-36956","OBJECT_ID":"2026-039Z","EPOCH":"2026-03-10T06:00:02.000160","MEAN_MOTION":15.84755058,"ECCENTRICITY":0.00014282,"INCLINATION":42.9979,"RA_OF_ASC_NODE":51.2665,"ARG_OF_PERICENTER":272.4802,"MEAN_ANOMALY":182.2239,"EPHEMERIS_TYPE":0,"CLASSIFICATION_TYPE":"U","NORAD_CAT_ID":68009,"ELEMENT_SET_NO":999,"REV_AT_EPOCH":296,"BSTAR":-0.0075551552,"MEAN_MOTION_DOT":-0.01588464,"MEAN_MOTION_DDOT":0},{"OBJECT_NAME":"STARLINK-36953","OBJECT_ID":"2026-039AA","EPOCH":"2026-03-10T06:00:02.000160","MEAN_MOTION":15.84991536,"ECCENTRICITY":0.00012979,"INCLINATION":42.9977,"RA_OF_ASC_NODE":51.2461,"ARG_OF_PERICENTER":276.6255,"MEAN_ANOMALY":185.9335,"EPHEMERIS_TYPE":0,"CLASSIFICATION_TYPE":"U","NORAD_CAT_ID":68010,"ELEMENT_SET_NO":999,"REV_AT_EPOCH":296,"BSTAR":-0.0074760985,"MEAN_MOTION_DOT":-0.01589778,"MEAN_MOTION_DDOT":0},{"OBJECT_NAME":"STARLINK-36991","OBJECT_ID":"2026-039AB","EPOCH":"2026-03-10T06:00:02.000160","MEAN_MOTION":15.8511697,"ECCENTRICITY":0.00014065,"INCLINATION":42.9975,"RA_OF_ASC_NODE":51.2366,"ARG_OF_PERICENTER":269.5459,"MEAN_ANOMALY":196.9039,"EPHEMERIS_TYPE":0,"CLASSIFICATION_TYPE":"U","NORAD_CAT_ID":68011,"ELEMENT_SET_NO":999,"REV_AT_EPOCH":296,"BSTAR":-0.0074381338,"MEAN_MOTION_DOT":-0.01591319,"MEAN_MOTION_DDOT":0},{"OBJECT_NAME":"STARLINK-36936","OBJECT_ID":"2026-039AC","EPOCH":"2026-03-10T06:00:02.000160","MEAN_MOTION":15.85374304,"ECCENTRICITY":0.00014407,"INCLINATION":42.9974,"RA_OF_ASC_NODE":51.2164,"ARG_OF_PERICENTER":275.6247,"MEAN_ANOMALY":198.5437,"EPHEMERIS_TYPE":0,"CLASSIFICATION_TYPE":"U","NORAD_CAT_ID":68012,"ELEMENT_SET_NO":999,"REV_AT_EPOCH":296,"BSTAR":-0.0073618157,"MEAN_MOTION_DOT":-0.01594546,"MEAN_MOTION_DDOT":0},{"OBJECT_NAME":"STARLINK-36967","OBJECT_ID":"2026-039AD","EPOCH":"2026-03-10T06:00:02.000160","MEAN_MOTION":15.84880827,"ECCENTRICITY":0.00014271,"INCLINATION":42.9976,"RA_OF_ASC_NODE":51.2558,"ARG_OF_PERICENTER":270.1464,"MEAN_ANOMALY":188.4597,"EPHEMERIS_TYPE":0,"CLASSIFICATION_TYPE":"U","NORAD_CAT_ID":68013,"ELEMENT_SET_NO":999,"REV_AT_EPOCH":296,"BSTAR":-0.0074916752,"MEAN_MOTION_DOT":-0.01585269,"MEAN_MOTION_DDOT":0},{"OBJECT_NAME":"STARLINK-36985","OBJECT_ID":"2026-039AE","EPOCH":"2026-03-10T06:00:02.000160","MEAN_MOTION":15.85250978,"ECCENTRICITY":0.00013886,"INCLINATION":42.9976,"RA_OF_ASC_NODE":51.2271,"ARG_OF_PERICENTER":267.2651,"MEAN_ANOMALY":203.0175,"EPHEMERIS_TYPE":0,"CLASSIFICATION_TYPE":"U","NORAD_CAT_ID":68014,"ELEMENT_SET_NO":999,"REV_AT_EPOCH":296,"BSTAR":-0.0073673101,"MEAN_MOTION_DOT":-0.01587129,"MEAN_MOTION_DDOT":0},{"OBJECT_NAME":"STARLINK-36335","OBJECT_ID":"2026-040A","EPOCH":"2026-03-10T06:00:02.000160","MEAN_MOTION":16.04129574,"ECCENTRICITY":0.00011476,"INCLINATION":97.2777,"RA_OF_ASC_NODE":17.474,"ARG_OF_PERICENTER":113.9286,"MEAN_ANOMALY":359.0072,"EPHEMERIS_TYPE":0,"CLASSIFICATION_TYPE":"U","NORAD_CAT_ID":68015,"ELEMENT_SET_NO":999,"REV_AT_EPOCH":246,"BSTAR":-0.0016250452,"MEAN_MOTION_DOT":-0.01042902,"MEAN_MOTION_DDOT":0.00037161698},{"OBJECT_NAME":"STARLINK-36923","OBJECT_ID":"2026-040B","EPOCH":"2026-03-10T06:00:02.000160","MEAN_MOTION":16.04340189,"ECCENTRICITY":0.00010201,"INCLINATION":97.2778,"RA_OF_ASC_NODE":17.4766,"ARG_OF_PERICENTER":107.8562,"MEAN_ANOMALY":10.5869,"EPHEMERIS_TYPE":0,"CLASSIFICATION_TYPE":"U","NORAD_CAT_ID":68016,"ELEMENT_SET_NO":999,"REV_AT_EPOCH":251,"BSTAR":-0.0016125915,"MEAN_MOTION_DOT":-0.01047946,"MEAN_MOTION_DDOT":0.00037589355},{"OBJECT_NAME":"STARLINK-36568","OBJECT_ID":"2026-040C","EPOCH":"2026-03-10T06:00:02.000160","MEAN_MOTION":16.04439014,"ECCENTRICITY":0.00011224,"INCLINATION":97.2775,"RA_OF_ASC_NODE":17.4778,"ARG_OF_PERICENTER":116.7447,"MEAN_ANOMALY":4.2279,"EPHEMERIS_TYPE":0,"CLASSIFICATION_TYPE":"U","NORAD_CAT_ID":68017,"ELEMENT_SET_NO":999,"REV_AT_EPOCH":251,"BSTAR":-0.001597294,"MEAN_MOTION_DOT":-0.01044211,"MEAN_MOTION_DDOT":0.00037385833},{"OBJECT_NAME":"STARLINK-36930","OBJECT_ID":"2026-040D","EPOCH":"2026-03-10T06:00:02.000160","MEAN_MOTION":16.04234784,"ECCENTRICITY":0.00010398,"INCLINATION":97.2775,"RA_OF_ASC_NODE":17.4755,"ARG_OF_PERICENTER":115.1985,"MEAN_ANOMALY":0.4795,"EPHEMERIS_TYPE":0,"CLASSIFICATION_TYPE":"U","NORAD_CAT_ID":68018,"ELEMENT_SET_NO":999,"REV_AT_EPOCH":251,"BSTAR":-0.0016165206,"MEAN_MOTION_DOT":-0.01043941,"MEAN_MOTION_DDOT":0.00037276928}]
